[{"OBJECT_NAME":"RISAT-2BR1","OBJECT_ID":"2019-089F","EPOCH":"2026-03-09T22:23:56.080608","MEAN_MOTION":15.01632497,"ECCENTRICITY":0.00130957,"INCLINATION":36.9618,"RA_OF_ASC_NODE":340.419,"ARG_OF_PERICENTER":88.0635,"MEAN_ANOMALY":272.1607,"EPHEMERIS_TYPE":0,"CLASSIFICATION_TYPE":"U","NORAD_CAT_ID":44857,"ELEMENT_SET_NO":999,"REV_AT_EPOCH":34227,"BSTAR":0.00042406412,"MEAN_MOTION_DOT":5.543e-5,"MEAN_MOTION_DDOT":0},{"OBJECT_NAME":"FENGYUN 1C DEB","OBJECT_ID":"1999-025DCC","EPOCH":"2026-03-06T20:17:15.373248","MEAN_MOTION":14.96028569,"ECCENTRICITY":0.01060199,"INCLINATION":97.3493,"RA_OF_ASC_NODE":89.8611,"ARG_OF_PERICENTER":314.0813,"MEAN_ANOMALY":45.1717,"EPHEMERIS_TYPE":0,"CLASSIFICATION_TYPE":"U","NORAD_CAT_ID":32464,"ELEMENT_SET_NO":999,"REV_AT_EPOCH":62048,"BSTAR":0.0018930434,"MEAN_MOTION_DOT":0.00023806,"MEAN_MOTION_DDOT":0}]
